start=new Date('2022-06-03T00:00:00.000Z').valueOf();
sats=[{"MEAN_ANOMALY":"327.6237","ECCENTRICITY":"0.00026200","EPOCH":"2022-06-02T15:26:32.032320","CENTER_NAME":"EARTH","NORAD_CAT_ID":"49733","TLE_LINE2":"2 49733  53.2142 216.4331 0002620  32.4916 327.6237 15.08852166 27652","OBJECT_ID":"2021-115K","REF_FRAME":"TEME","RA_OF_ASC_NODE":"216.4331","OBJECT_NAME":"STARLINK-3252","RCS_SIZE":"LARGE","LAUNCH_DATE":"2021-12-02","CLASSIFICATION_TYPE":"U","SEMIMAJOR_AXIS":"6917.843","APOAPSIS":"541.521","PERIAPSIS":"537.896","TIME_SYSTEM":"UTC","MEAN_ELEMENT_THEORY":"SGP4","ARG_OF_PERICENTER":"32.4916","OBJECT_TYPE":"PAYLOAD","DECAY_DATE":null,"MEAN_MOTION_DDOT":"0.0000000000000","SITE":"AFETR","EPHEMERIS_TYPE":"0","FILE":"3477983","ELEMENT_SET_NO":"999","REV_AT_EPOCH":"2765","MEAN_MOTION":"15.08852166","GP_ID":"205214029","BSTAR":"0.00008314000000","MEAN_MOTION_DOT":"0.00001035","PERIOD":"95.437","COUNTRY_CODE":"US","INCLINATION":"53.2142","TLE_LINE1":"1 49733U 21115K   22153.64342630  .00001035  00000-0  83140-4 0  9996"},{"ARG_OF_PERICENTER":"33.3214","MEAN_ELEMENT_THEORY":"SGP4","OBJECT_TYPE":"PAYLOAD","DECAY_DATE":null,"MEAN_MOTION_DDOT":"0.0000000000000","TIME_SYSTEM":"UTC","PERIAPSIS":"537.916","LAUNCH_DATE":"2021-12-02","CLASSIFICATION_TYPE":"U","RCS_SIZE":"LARGE","SEMIMAJOR_AXIS":"6917.872","APOAPSIS":"541.559","OBJECT_ID":"2021-115L","REF_FRAME":"TEME","OBJECT_NAME":"STARLINK-3238","RA_OF_ASC_NODE":"205.4526","TLE_LINE2":"2 49734  53.2183 205.4526 0002633  33.3214 326.7944 15.08842682 27834","NORAD_CAT_ID":"49734","EPOCH":"2022-06-02T20:40:31.220544","CENTER_NAME":"EARTH","ECCENTRICITY":"0.00026330","MEAN_ANOMALY":"326.7944","INCLINATION":"53.2183","TLE_LINE1":"1 49734U 21115L   22153.86147246  .00000300  00000-0  36956-4 0  9994","MEAN_MOTION_DOT":"0.00000300","PERIOD":"95.437","COUNTRY_CODE":"US","MEAN_MOTION":"15.08842682","GP_ID":"205214278","BSTAR":"0.00003695600000","REV_AT_EPOCH":"2783","ELEMENT_SET_NO":"999","SITE":"AFETR","EPHEMERIS_TYPE":"0","FILE":"3477983"},{"APOAPSIS":"541.427","RCS_SIZE":"LARGE","LAUNCH_DATE":"2021-12-02","SEMIMAJOR_AXIS":"6917.810","CLASSIFICATION_TYPE":"U","PERIAPSIS":"537.924","TIME_SYSTEM":"UTC","MEAN_MOTION_DDOT":"0.0000000000000","DECAY_DATE":null,"OBJECT_TYPE":"PAYLOAD","ARG_OF_PERICENTER":"24.4431","MEAN_ELEMENT_THEORY":"SGP4","ECCENTRICITY":"0.00025320","MEAN_ANOMALY":"233.0288","CENTER_NAME":"EARTH","EPOCH":"2022-06-01T20:00:01.000224","NORAD_CAT_ID":"49735","TLE_LINE2":"2 49735  53.2124 220.0659 0002532  24.4431 233.0288 15.08862927 28645","RA_OF_ASC_NODE":"220.0659","OBJECT_NAME":"STARLINK-3113","OBJECT_ID":"2021-115M","REF_FRAME":"TEME","GP_ID":"205140652","BSTAR":"-0.00391370000000","MEAN_MOTION":"15.08862927","COUNTRY_CODE":"US","PERIOD":"95.436","MEAN_MOTION_DOT":"-0.00062081","TLE_LINE1":"1 49735U 21115M   22152.83334491 -.00062081  00000-0 -39137-2 0  9999","INCLINATION":"53.2124","FILE":"3476798","SITE":"AFETR","EPHEMERIS_TYPE":"0","ELEMENT_SET_NO":"999","REV_AT_EPOCH":"2864"},{"BSTAR":"0.00003342800000","GP_ID":"205212777","MEAN_MOTION":"15.08836508","TLE_LINE1":"1 49736U 21115N   22153.86884344  .00000243  00000-0  33428-4 0  9990","INCLINATION":"53.2180","PERIOD":"95.438","COUNTRY_CODE":"US","MEAN_MOTION_DOT":"0.00000243","ELEMENT_SET_NO":"999","FILE":"3477983","EPHEMERIS_TYPE":"0","SITE":"AFETR","REV_AT_EPOCH":"2783","PERIAPSIS":"537.676","APOAPSIS":"541.836","SEMIMAJOR_AXIS":"6917.891","LAUNCH_DATE":"2021-12-02","RCS_SIZE":"LARGE","CLASSIFICATION_TYPE":"U","MEAN_ELEMENT_THEORY":"SGP4","ARG_OF_PERICENTER":"30.2443","MEAN_MOTION_DDOT":"0.0000000000000","DECAY_DATE":null,"OBJECT_TYPE":"PAYLOAD","TIME_SYSTEM":"UTC","EPOCH":"2022-06-02T20:51:08.073216","CENTER_NAME":"EARTH","MEAN_ANOMALY":"329.8722","ECCENTRICITY":"0.00030070","RA_OF_ASC_NODE":"205.4172","OBJECT_NAME":"STARLINK-3148","REF_FRAME":"TEME","OBJECT_ID":"2021-115N","TLE_LINE2":"2 49736  53.2180 205.4172 0003007  30.2443 329.8722 15.08836508 27834","NORAD_CAT_ID":"49736"},{"REV_AT_EPOCH":"2783","ELEMENT_SET_NO":"999","FILE":"3477983","SITE":"AFETR","EPHEMERIS_TYPE":"0","TLE_LINE1":"1 49737U 21115P   22153.86515984  .00000140  00000-0  26947-4 0  9996","INCLINATION":"53.2170","PERIOD":"95.438","COUNTRY_CODE":"US","MEAN_MOTION_DOT":"0.00000140","GP_ID":"205213529","BSTAR":"0.00002694700000","MEAN_MOTION":"15.08840552","RA_OF_ASC_NODE":"205.4403","OBJECT_NAME":"STARLINK-3225","OBJECT_ID":"2021-115P","REF_FRAME":"TEME","TLE_LINE2":"2 49737  53.2170 205.4403 0002560  35.3508 324.7653 15.08840552 27833","NORAD_CAT_ID":"49737","EPOCH":"2022-06-02T20:45:49.810176","CENTER_NAME":"EARTH","ECCENTRICITY":"0.00025600","MEAN_ANOMALY":"324.7653","ARG_OF_PERICENTER":"35.3508","MEAN_ELEMENT_THEORY":"SGP4","DECAY_DATE":null,"MEAN_MOTION_DDOT":"0.0000000000000","OBJECT_TYPE":"PAYLOAD","TIME_SYSTEM":"UTC","PERIAPSIS":"537.973","APOAPSIS":"541.515","RCS_SIZE":"LARGE","LAUNCH_DATE":"2021-12-02","SEMIMAJOR_AXIS":"6917.879","CLASSIFICATION_TYPE":"U"},{"REV_AT_EPOCH":"2783","ELEMENT_SET_NO":"999","FILE":"3477983","EPHEMERIS_TYPE":"0","SITE":"AFETR","TLE_LINE1":"1 49738U 21115Q   22153.87251809 -.00002039  00000-0 -10999-3 0  9991","INCLINATION":"53.2184","PERIOD":"95.438","COUNTRY_CODE":"US","MEAN_MOTION_DOT":"-0.00002039","BSTAR":"-0.00010999000000","GP_ID":"205213778","MEAN_MOTION":"15.08837049","RA_OF_ASC_NODE":"205.4126","OBJECT_NAME":"STARLINK-3143","REF_FRAME":"TEME","OBJECT_ID":"2021-115Q","NORAD_CAT_ID":"49738","TLE_LINE2":"2 49738  53.2184 205.4126 0002627  25.4533 334.6588 15.08837049 27837","EPOCH":"2022-06-02T20:56:25.562976","CENTER_NAME":"EARTH","MEAN_ANOMALY":"334.6588","ECCENTRICITY":"0.00026270","ARG_OF_PERICENTER":"25.4533","MEAN_ELEMENT_THEORY":"SGP4","DECAY_DATE":null,"MEAN_MOTION_DDOT":"0.0000000000000","OBJECT_TYPE":"PAYLOAD","TIME_SYSTEM":"UTC","PERIAPSIS":"537.937","APOAPSIS":"541.572","RCS_SIZE":"LARGE","LAUNCH_DATE":"2021-12-02","SEMIMAJOR_AXIS":"6917.889","CLASSIFICATION_TYPE":"U"},{"MEAN_MOTION":"15.08848735","GP_ID":"205213028","BSTAR":"0.00013303000000","MEAN_MOTION_DOT":"0.00001830","PERIOD":"95.437","COUNTRY_CODE":"US","INCLINATION":"53.2144","TLE_LINE1":"1 49739U 21115R   22153.65447444  .00001830  00000-0  13303-3 0  9998","EPHEMERIS_TYPE":"0","SITE":"AFETR","FILE":"3477983","ELEMENT_SET_NO":"999","REV_AT_EPOCH":"2765","LAUNCH_DATE":"2021-12-02","SEMIMAJOR_AXIS":"6917.854","RCS_SIZE":"LARGE","CLASSIFICATION_TYPE":"U","APOAPSIS":"541.494","PERIAPSIS":"537.944","TIME_SYSTEM":"UTC","ARG_OF_PERICENTER":"24.9518","MEAN_ELEMENT_THEORY":"SGP4","MEAN_MOTION_DDOT":"0.0000000000000","DECAY_DATE":null,"OBJECT_TYPE":"PAYLOAD","ECCENTRICITY":"0.00025660","MEAN_ANOMALY":"335.1597","EPOCH":"2022-06-02T15:42:26.591616","CENTER_NAME":"EARTH","NORAD_CAT_ID":"49739","TLE_LINE2":"2 49739  53.2144 216.3791 0002566  24.9518 335.1597 15.08848735 27652","REF_FRAME":"TEME","OBJECT_ID":"2021-115R","OBJECT_NAME":"STARLINK-3155","RA_OF_ASC_NODE":"216.3791"},{"TIME_SYSTEM":"UTC","MEAN_MOTION_DDOT":"0.0000000000000","DECAY_DATE":null,"OBJECT_TYPE":"PAYLOAD","ARG_OF_PERICENTER":"27.0890","MEAN_ELEMENT_THEORY":"SGP4","APOAPSIS":"541.626","LAUNCH_DATE":"2021-12-02","SEMIMAJOR_AXIS":"6917.857","RCS_SIZE":"LARGE","CLASSIFICATION_TYPE":"U","PERIAPSIS":"537.818","TLE_LINE2":"2 49740  53.2153 206.5528 0002752  27.0890 333.0246 15.08847615 27796","NORAD_CAT_ID":"49740","OBJECT_NAME":"STARLINK-3226","RA_OF_ASC_NODE":"206.5528","OBJECT_ID":"2021-115S","REF_FRAME":"TEME","MEAN_ANOMALY":"333.0246","ECCENTRICITY":"0.00027520","CENTER_NAME":"EARTH","EPOCH":"2022-06-02T14:50:47.100480","COUNTRY_CODE":"US","PERIOD":"95.437","MEAN_MOTION_DOT":"0.00002271","TLE_LINE1":"1 49740U 21115S   22153.61860070  .00002271  00000-0  16073-3 0  9997","INCLINATION":"53.2153","GP_ID":"205213278","BSTAR":"0.00016073000000","MEAN_MOTION":"15.08847615","REV_AT_EPOCH":"2779","FILE":"3477983","EPHEMERIS_TYPE":"0","SITE":"AFETR","ELEMENT_SET_NO":"999"},{"REV_AT_EPOCH":"2783","SITE":"AFETR","EPHEMERIS_TYPE":"0","FILE":"3477983","ELEMENT_SET_NO":"999","MEAN_MOTION_DOT":"-0.00000617","COUNTRY_CODE":"US","PERIOD":"95.437","INCLINATION":"53.2149","TLE_LINE1":"1 49741U 21115T   22153.87618439 -.00000617  00000-0 -20654-4 0  9991","MEAN_MOTION":"15.08849488","BSTAR":"-0.00002065400000","GP_ID":"205214030","TLE_LINE2":"2 49741  53.2149 205.3958 0002465  34.9759 325.1395 15.08849488 27830","NORAD_CAT_ID":"49741","REF_FRAME":"TEME","OBJECT_ID":"2021-115T","RA_OF_ASC_NODE":"205.3958","OBJECT_NAME":"STARLINK-3244","ECCENTRICITY":"0.00024650","MEAN_ANOMALY":"325.1395","CENTER_NAME":"EARTH","EPOCH":"2022-06-02T21:01:42.331296","TIME_SYSTEM":"UTC","DECAY_DATE":null,"MEAN_MOTION_DDOT":"0.0000000000000","OBJECT_TYPE":"PAYLOAD","ARG_OF_PERICENTER":"34.9759","MEAN_ELEMENT_THEORY":"SGP4","RCS_SIZE":"LARGE","LAUNCH_DATE":"2021-12-02","SEMIMAJOR_AXIS":"6917.851","CLASSIFICATION_TYPE":"U","APOAPSIS":"541.422","PERIAPSIS":"538.011"},{"EPHEMERIS_TYPE":"0","SITE":"AFETR","FILE":"3476795","ELEMENT_SET_NO":"999","REV_AT_EPOCH":"2878","MEAN_MOTION":"15.08850332","GP_ID":"205140602","BSTAR":"-0.00191650000000","MEAN_MOTION_DOT":"-0.00030670","PERIOD":"95.437","COUNTRY_CODE":"US","INCLINATION":"53.2136","TLE_LINE1":"1 49742U 21115U   22152.83334491 -.00030670  00000-0 -19165-2 0  9995","MEAN_ANOMALY":"338.9518","ECCENTRICITY":"0.00022970","EPOCH":"2022-06-01T20:00:01.000224","CENTER_NAME":"EARTH","TLE_LINE2":"2 49742  53.2136 210.0816 0002297  33.5192 338.9518 15.08850332 28786","NORAD_CAT_ID":"49742","OBJECT_ID":"2021-115U","REF_FRAME":"TEME","RA_OF_ASC_NODE":"210.0816","OBJECT_NAME":"STARLINK-3202","RCS_SIZE":"LARGE","LAUNCH_DATE":"2021-12-02","CLASSIFICATION_TYPE":"U","SEMIMAJOR_AXIS":"6917.849","APOAPSIS":"541.303","PERIAPSIS":"538.125","TIME_SYSTEM":"UTC","MEAN_ELEMENT_THEORY":"SGP4","ARG_OF_PERICENTER":"33.5192","MEAN_MOTION_DDOT":"0.0000000000000","DECAY_DATE":null,"OBJECT_TYPE":"PAYLOAD"}];
